{
  "type": "FeatureCollection",
  "features": [
    {
      "type": "Feature",
      "properties": {
        "norad_id": 39773,
        "name": "EUTELSAT 3B",
        "group": "eutelsat",
        "lat": -0.0766889204910137,
        "lon": -120.43342215519849,
        "alt_km": 35766.43749452321,
        "timestamp": "2025-12-04T10:51:49.777533+00:00",
        "meta_object_name": "EUTELSAT 3B",
        "meta_object_id": "2014-030A",
        "meta_epoch": "2025-12-03T18:42:38.603808",
        "meta_mean_motion": 1.00270877,
        "meta_eccentricity": 0.00047809,
        "meta_inclination": 0.0635,
        "meta_ra_of_asc_node": 3.048,
        "meta_arg_of_pericenter": 225.3781,
        "meta_mean_anomaly": 128.1935,
        "meta_ephemeris_type": 0,
        "meta_classification_type": "U",
        "meta_norad_cat_id": 39773,
        "meta_element_set_no": 999,
        "meta_rev_at_epoch": 4210,
        "meta_bstar": 0,
        "meta_mean_motion_dot": 3.7e-07,
        "meta_mean_motion_ddot": 0,
        "tle_line1": "1 39773U 14030A   25337.77961347  .00000037  00000+0  00000+0 0  9999",
        "tle_line2": "2 39773   0.0635   3.0480 0004780 225.3781 128.1935  1.00270877 42105"
      },
      "geometry": {
        "type": "Point",
        "coordinates": [
          -120.43342215519849,
          -0.0766889204910137
        ]
      }
    },
    {
      "type": "Feature",
      "properties": {
        "norad_id": 40425,
        "name": "EUTELSAT 115 WEST B",
        "group": "eutelsat",
        "lat": -0.00438998518233044,
        "lon": 121.57348803539972,
        "alt_km": 35784.712835215,
        "timestamp": "2025-12-04T10:51:49.777545+00:00",
        "meta_object_name": "EUTELSAT 115 WEST B",
        "meta_object_id": "2015-010B",
        "meta_epoch": "2025-12-03T16:37:59.708352",
        "meta_mean_motion": 1.00270514,
        "meta_eccentricity": 4.787e-05,
        "meta_inclination": 0.0142,
        "meta_ra_of_asc_node": 147.7315,
        "meta_arg_of_pericenter": 301.2332,
        "meta_mean_anomaly": 118.4232,
        "meta_ephemeris_type": 0,
        "meta_classification_type": "U",
        "meta_norad_cat_id": 40425,
        "meta_element_set_no": 999,
        "meta_rev_at_epoch": 3943,
        "meta_bstar": 0,
        "meta_mean_motion_dot": -7e-08,
        "meta_mean_motion_ddot": 0,
        "tle_line1": "1 40425U 15010B   25337.69305218 -.00000007  00000+0  00000+0 0  9992",
        "tle_line2": "2 40425   0.0142 147.7315 0000478 301.2332 118.4232  1.00270514 39435"
      },
      "geometry": {
        "type": "Point",
        "coordinates": [
          121.57348803539972,
          -0.00438998518233044
        ]
      }
    },
    {
      "type": "Feature",
      "properties": {
        "norad_id": 40875,
        "name": "EUTELSAT 8 WEST B",
        "group": "eutelsat",
        "lat": -0.0818289328895807,
        "lon": -131.55133787118427,
        "alt_km": 35770.4521151738,
        "timestamp": "2025-12-04T10:51:49.777557+00:00",
        "meta_object_name": "EUTELSAT 8 WEST B",
        "meta_object_id": "2015-039B",
        "meta_epoch": "2025-12-03T18:42:38.603808",
        "meta_mean_motion": 1.00271603,
        "meta_eccentricity": 0.00041368,
        "meta_inclination": 0.0656,
        "meta_ra_of_asc_node": 348.0497,
        "meta_arg_of_pericenter": 266.9751,
        "meta_mean_anomaly": 90.5072,
        "meta_ephemeris_type": 0,
        "meta_classification_type": "U",
        "meta_norad_cat_id": 40875,
        "meta_element_set_no": 999,
        "meta_rev_at_epoch": 3769,
        "meta_bstar": 0,
        "meta_mean_motion_dot": -4.8e-07,
        "meta_mean_motion_ddot": 0,
        "tle_line1": "1 40875U 15039B   25337.77961347 -.00000048  00000+0  00000+0 0  9997",
        "tle_line2": "2 40875   0.0656 348.0497 0004136 266.9751  90.5072  1.00271603 37696"
      },
      "geometry": {
        "type": "Point",
        "coordinates": [
          -131.55133787118427,
          -0.0818289328895807
        ]
      }
    },
    {
      "type": "Feature",
      "properties": {
        "norad_id": 41310,
        "name": "EUTELSAT 9B",
        "group": "eutelsat",
        "lat": -0.017488926857450425,
        "lon": -114.57027924748056,
        "alt_km": 35766.39015067708,
        "timestamp": "2025-12-04T10:51:49.777569+00:00",
        "meta_object_name": "EUTELSAT 9B",
        "meta_object_id": "2016-005A",
        "meta_epoch": "2025-12-04T00:04:18.830208",
        "meta_mean_motion": 1.00271471,
        "meta_eccentricity": 0.0004951,
        "meta_inclination": 0.0674,
        "meta_ra_of_asc_node": 75.3023,
        "meta_arg_of_pericenter": 189.9552,
        "meta_mean_anomaly": 177.891,
        "meta_ephemeris_type": 0,
        "meta_classification_type": "U",
        "meta_norad_cat_id": 41310,
        "meta_element_set_no": 999,
        "meta_rev_at_epoch": 3616,
        "meta_bstar": 0,
        "meta_mean_motion_dot": 7.8e-07,
        "meta_mean_motion_ddot": 0,
        "tle_line1": "1 41310U 16005A   25338.00299572  .00000078  00000+0  00000+0 0  9999",
        "tle_line2": "2 41310   0.0674  75.3023 0004951 189.9552 177.8910  1.00271471 36168"
      },
      "geometry": {
        "type": "Point",
        "coordinates": [
          -114.57027924748056,
          -0.017488926857450425
        ]
      }
    },
    {
      "type": "Feature",
      "properties": {
        "norad_id": 41382,
        "name": "EUTELSAT 65 WEST A",
        "group": "eutelsat",
        "lat": -0.01381283354179872,
        "lon": 171.22692061185205,
        "alt_km": 35786.32187239849,
        "timestamp": "2025-12-04T10:51:49.777581+00:00",
        "meta_object_name": "EUTELSAT 65 WEST A",
        "meta_object_id": "2016-014A",
        "meta_epoch": "2025-12-04T01:25:48.524160",
        "meta_mean_motion": 1.00270418,
        "meta_eccentricity": 0.0002819,
        "meta_inclination": 0.0499,
        "meta_ra_of_asc_node": 346.9659,
        "meta_arg_of_pericenter": 273.4598,
        "meta_mean_anomaly": 128.9647,
        "meta_ephemeris_type": 0,
        "meta_classification_type": "U",
        "meta_norad_cat_id": 41382,
        "meta_element_set_no": 999,
        "meta_rev_at_epoch": 3557,
        "meta_bstar": 0,
        "meta_mean_motion_dot": -2.6e-06,
        "meta_mean_motion_ddot": 0,
        "tle_line1": "1 41382U 16014A   25338.05958940 -.00000260  00000+0  00000+0 0  9998",
        "tle_line2": "2 41382   0.0499 346.9659 0002819 273.4598 128.9647  1.00270418 35572"
      },
      "geometry": {
        "type": "Point",
        "coordinates": [
          171.22692061185205,
          -0.01381283354179872
        ]
      }
    },
    {
      "type": "Feature",
      "properties": {
        "norad_id": 41589,
        "name": "EUTELSAT 117 WEST B",
        "group": "eutelsat",
        "lat": -0.006906151415573589,
        "lon": 119.46228747211299,
        "alt_km": 35786.087176432025,
        "timestamp": "2025-12-04T10:51:49.777593+00:00",
        "meta_object_name": "EUTELSAT 117 WEST B",
        "meta_object_id": "2016-038B",
        "meta_epoch": "2025-12-04T02:38:16.325088",
        "meta_mean_motion": 1.0026993,
        "meta_eccentricity": 1.62e-05,
        "meta_inclination": 0.0084,
        "meta_ra_of_asc_node": 141.8858,
        "meta_arg_of_pericenter": 294.8653,
        "meta_mean_anomaly": 279.0065,
        "meta_ephemeris_type": 0,
        "meta_classification_type": "U",
        "meta_norad_cat_id": 41589,
        "meta_element_set_no": 999,
        "meta_rev_at_epoch": 3470,
        "meta_bstar": 0,
        "meta_mean_motion_dot": 5e-08,
        "meta_mean_motion_ddot": 0,
        "tle_line1": "1 41589U 16038B   25338.10991117  .00000005  00000+0  00000+0 0  9998",
        "tle_line2": "2 41589   0.0084 141.8858 0000162 294.8653 279.0065  1.00269930 34705"
      },
      "geometry": {
        "type": "Point",
        "coordinates": [
          119.46228747211299,
          -0.006906151415573589
        ]
      }
    },
    {
      "type": "Feature",
      "properties": {
        "norad_id": 42741,
        "name": "EUTELSAT 172B",
        "group": "eutelsat",
        "lat": 0.0036063160445326163,
        "lon": 48.46054072630801,
        "alt_km": 35786.992923597485,
        "timestamp": "2025-12-04T10:51:49.777605+00:00",
        "meta_object_name": "EUTELSAT 172B",
        "meta_object_id": "2017-029B",
        "meta_epoch": "2025-12-03T17:18:38.540160",
        "meta_mean_motion": 1.00271292,
        "meta_eccentricity": 1.907e-05,
        "meta_inclination": 0.0029,
        "meta_ra_of_asc_node": 53.9145,
        "meta_arg_of_pericenter": 175.2679,
        "meta_mean_anomaly": 275.2829,
        "meta_ephemeris_type": 0,
        "meta_classification_type": "U",
        "meta_norad_cat_id": 42741,
        "meta_element_set_no": 999,
        "meta_rev_at_epoch": 3177,
        "meta_bstar": 0,
        "meta_mean_motion_dot": 1.2e-07,
        "meta_mean_motion_ddot": 0,
        "tle_line1": "1 42741U 17029B   25337.72127940  .00000012  00000+0  00000+0 0  9990",
        "tle_line2": "2 42741   0.0029  53.9145 0000190 175.2679 275.2829  1.00271292 31772"
      },
      "geometry": {
        "type": "Point",
        "coordinates": [
          48.46054072630801,
          0.0036063160445326163
        ]
      }
    }
  ]
}